NAVSTAR 77 (USA 289)    
1 43873U 18109A   24229.67886152 -.00000003  00000+0  00000+0 0  9998
2 43873  55.3178 118.6380 0030004 193.1043 353.0811  2.00558615 41649
